<script lang="ts">
  import { onMount, onDestroy } from "svelte";

  // Cesium viewer reference
  let cesiumContainer: HTMLDivElement;
  let viewer: any = null;
  let cesiumLoaded = false;
  let cesiumError = "";

  // UI State
  let inputData = "";
  let schemaType = "OMM";
  let isJsonValid = true;
  let jsonError = "";
  let isLoading = false;
  let visualizationActive = false;

  // Schema options
  const schemaTypes = [
    { value: "OMM", label: "OMM - Orbit Mean-Elements" },
    { value: "OEM", label: "OEM - Orbit Ephemeris" },
    { value: "CDM", label: "CDM - Conjunction Data" },
    { value: "EPM", label: "EPM - Entity Profile" },
  ];

  // Sample data
  const sampleData: Record<string, object> = {
    OMM: {
      OBJECT_NAME: "ISS (ZARYA)",
      OBJECT_ID: "1998-067A",
      CENTER_NAME: "EARTH",
      REF_FRAME: "TEME",
      TIME_SYSTEM: "UTC",
      MEAN_ELEMENT_THEORY: "SGP4",
      EPOCH: "2024-06-22T16:56:20.014080Z",
      MEAN_MOTION: 15.50094987,
      ECCENTRICITY: 0.0003571,
      INCLINATION: 51.6401,
      RA_OF_ASC_NODE: 247.4627,
      ARG_OF_PERICENTER: 130.5360,
      MEAN_ANOMALY: 325.0288,
      EPHEMERIS_TYPE: 0,
      CLASSIFICATION_TYPE: "U",
      NORAD_CAT_ID: 25544,
      ELEMENT_SET_NO: 999,
      REV_AT_EPOCH: 48587,
      BSTAR: 0.00034196,
      MEAN_MOTION_DOT: 0.00019817,
      MEAN_MOTION_DDOT: 0
    },
    OEM: {
      OBJECT_NAME: "STARLINK-1234",
      OBJECT_ID: "2020-001A",
      CENTER_NAME: "EARTH",
      REF_FRAME: "EME2000",
      TIME_SYSTEM: "UTC",
      START_TIME: "2024-06-22T00:00:00.000Z",
      STOP_TIME: "2024-06-22T06:00:00.000Z",
      EPHEMERIS: [
        {
          EPOCH: "2024-06-22T00:00:00.000Z",
          X: 6678.137,
          Y: 0.0,
          Z: 0.0,
          X_DOT: 0.0,
          Y_DOT: 7.725,
          Z_DOT: 0.0
        },
        {
          EPOCH: "2024-06-22T01:00:00.000Z",
          X: 4721.937,
          Y: 4721.937,
          Z: 0.0,
          X_DOT: -5.462,
          Y_DOT: 5.462,
          Z_DOT: 0.0
        },
        {
          EPOCH: "2024-06-22T02:00:00.000Z",
          X: 0.0,
          Y: 6678.137,
          Z: 0.0,
          X_DOT: -7.725,
          Y_DOT: 0.0,
          Z_DOT: 0.0
        },
        {
          EPOCH: "2024-06-22T03:00:00.000Z",
          X: -4721.937,
          Y: 4721.937,
          Z: 0.0,
          X_DOT: -5.462,
          Y_DOT: -5.462,
          Z_DOT: 0.0
        },
        {
          EPOCH: "2024-06-22T04:00:00.000Z",
          X: -6678.137,
          Y: 0.0,
          Z: 0.0,
          X_DOT: 0.0,
          Y_DOT: -7.725,
          Z_DOT: 0.0
        },
        {
          EPOCH: "2024-06-22T05:00:00.000Z",
          X: -4721.937,
          Y: -4721.937,
          Z: 0.0,
          X_DOT: 5.462,
          Y_DOT: -5.462,
          Z_DOT: 0.0
        },
        {
          EPOCH: "2024-06-22T06:00:00.000Z",
          X: 0.0,
          Y: -6678.137,
          Z: 0.0,
          X_DOT: 7.725,
          Y_DOT: 0.0,
          Z_DOT: 0.0
        }
      ]
    },
    CDM: {
      MESSAGE_ID: "CDM-2024-001",
      CREATION_DATE: "2024-06-22T12:00:00.000Z",
      ORIGINATOR: "JSPOC",
      TCA: "2024-06-23T08:30:45.000Z",
      MISS_DISTANCE: 0.125,
      COLLISION_PROBABILITY: 0.000234,
      OBJECT1: {
        OBJECT_DESIGNATOR: "25544",
        OBJECT_NAME: "ISS (ZARYA)",
        INTERNATIONAL_DESIGNATOR: "1998-067A",
        CATALOG_NAME: "SATCAT",
        OBJECT_TYPE: "PAYLOAD",
        OPERATOR_CONTACT_POSITION: "NASA",
        X: 6678.137,
        Y: 0.0,
        Z: 0.0,
        X_DOT: 0.0,
        Y_DOT: 7.725,
        Z_DOT: 0.0
      },
      OBJECT2: {
        OBJECT_DESIGNATOR: "99999",
        OBJECT_NAME: "DEBRIS",
        INTERNATIONAL_DESIGNATOR: "2019-999A",
        CATALOG_NAME: "SATCAT",
        OBJECT_TYPE: "DEBRIS",
        X: 6678.200,
        Y: 0.100,
        Z: 0.050,
        X_DOT: 0.0,
        Y_DOT: 7.720,
        Z_DOT: 0.002
      }
    },
    EPM: {
      ENTITY_ID: "ORG-001",
      ENTITY_NAME: "SpaceX",
      ENTITY_TYPE: "OPERATOR",
      COUNTRY: "USA",
      CONTACT_EMAIL: "operations@spacex.com",
      CONTACT_PHONE: "+1-310-363-6000",
      LOCATION: {
        LATITUDE: 28.5620,
        LONGITUDE: -80.5772,
        ALTITUDE: 0.003
      },
      DESCRIPTION: "Commercial space transportation company",
      CAPABILITIES: ["LAUNCH", "SPACECRAFT_OPERATIONS", "CONSTELLATION_MANAGEMENT"],
      ACTIVE_ASSETS: 5000,
      REGISTRATION_DATE: "2002-05-06T00:00:00.000Z"
    }
  };

  // Get Cesium from window (loaded via CDN)
  function getCesium(): any {
    return (window as any).Cesium;
  }

  // Validate JSON input
  function validateJson(value: string): boolean {
    if (!value.trim()) {
      isJsonValid = true;
      jsonError = "";
      return true;
    }
    try {
      JSON.parse(value);
      isJsonValid = true;
      jsonError = "";
      return true;
    } catch (e: any) {
      isJsonValid = false;
      jsonError = e.message;
      return false;
    }
  }

  // Handle input change
  function handleInputChange() {
    validateJson(inputData);
  }

  // Load sample data
  function loadSample(type: string) {
    schemaType = type;
    inputData = JSON.stringify(sampleData[type], null, 2);
    validateJson(inputData);
  }

  // Convert OMM elements to orbit position (simplified Keplerian)
  function ommToOrbitPositions(omm: any): Array<{x: number, y: number, z: number}> {
    const positions: Array<{x: number, y: number, z: number}> = [];

    // Extract orbital elements
    const a = Math.pow(398600.4418 / Math.pow(omm.MEAN_MOTION * 2 * Math.PI / 86400, 2), 1/3); // Semi-major axis in km
    const e = omm.ECCENTRICITY;
    const i = omm.INCLINATION * Math.PI / 180; // Convert to radians
    const omega = omm.RA_OF_ASC_NODE * Math.PI / 180;
    const w = omm.ARG_OF_PERICENTER * Math.PI / 180;

    // Generate orbit points
    for (let theta = 0; theta <= 360; theta += 2) {
      const nu = theta * Math.PI / 180; // True anomaly
      const r = a * (1 - e * e) / (1 + e * Math.cos(nu));

      // Position in orbital plane
      const xOrbit = r * Math.cos(nu);
      const yOrbit = r * Math.sin(nu);

      // Rotate to ECI frame
      const x = xOrbit * (Math.cos(omega) * Math.cos(w) - Math.sin(omega) * Math.sin(w) * Math.cos(i))
              - yOrbit * (Math.cos(omega) * Math.sin(w) + Math.sin(omega) * Math.cos(w) * Math.cos(i));
      const y = xOrbit * (Math.sin(omega) * Math.cos(w) + Math.cos(omega) * Math.sin(w) * Math.cos(i))
              - yOrbit * (Math.sin(omega) * Math.sin(w) - Math.cos(omega) * Math.cos(w) * Math.cos(i));
      const z = xOrbit * Math.sin(w) * Math.sin(i) + yOrbit * Math.cos(w) * Math.sin(i);

      positions.push({ x: x * 1000, y: y * 1000, z: z * 1000 }); // Convert to meters
    }

    return positions;
  }

  // Visualize data
  async function visualize() {
    const Cesium = getCesium();
    if (!viewer || !Cesium) {
      console.error("Cesium not initialized");
      return;
    }

    if (!validateJson(inputData)) {
      return;
    }

    isLoading = true;

    try {
      const data = JSON.parse(inputData);

      // Clear existing entities
      viewer.entities.removeAll();

      switch (schemaType) {
        case "OMM":
          await visualizeOMM(data);
          break;
        case "OEM":
          await visualizeOEM(data);
          break;
        case "CDM":
          await visualizeCDM(data);
          break;
        case "EPM":
          await visualizeEPM(data);
          break;
      }

      visualizationActive = true;
    } catch (e) {
      console.error("Visualization error:", e);
    } finally {
      isLoading = false;
    }
  }

  // Visualize OMM (orbit)
  async function visualizeOMM(data: any) {
    const Cesium = getCesium();
    const positions = ommToOrbitPositions(data);

    // Create orbit path
    const cartesianPositions = positions.map(p =>
      new Cesium.Cartesian3(p.x, p.y, p.z)
    );

    viewer.entities.add({
      name: data.OBJECT_NAME || "Satellite",
      polyline: {
        positions: cartesianPositions,
        width: 2,
        material: new Cesium.PolylineGlowMaterialProperty({
          glowPower: 0.2,
          color: Cesium.Color.fromCssColorString("#667eea")
        })
      }
    });

    // Add satellite marker at current position (first position)
    const satPos = positions[0];
    viewer.entities.add({
      name: data.OBJECT_NAME || "Satellite",
      position: new Cesium.Cartesian3(satPos.x, satPos.y, satPos.z),
      point: {
        pixelSize: 12,
        color: Cesium.Color.fromCssColorString("#38ef7d"),
        outlineColor: Cesium.Color.WHITE,
        outlineWidth: 2
      },
      label: {
        text: data.OBJECT_NAME || "Satellite",
        font: "14px JetBrains Mono, monospace",
        fillColor: Cesium.Color.WHITE,
        outlineColor: Cesium.Color.BLACK,
        outlineWidth: 2,
        style: Cesium.LabelStyle.FILL_AND_OUTLINE,
        verticalOrigin: Cesium.VerticalOrigin.BOTTOM,
        pixelOffset: new Cesium.Cartesian2(0, -15)
      }
    });

    // Zoom to show orbit
    viewer.zoomTo(viewer.entities);
  }

  // Visualize OEM (ephemeris)
  async function visualizeOEM(data: any) {
    const Cesium = getCesium();
    if (!data.EPHEMERIS || data.EPHEMERIS.length === 0) return;

    const positions = data.EPHEMERIS.map((ep: any) =>
      new Cesium.Cartesian3(ep.X * 1000, ep.Y * 1000, ep.Z * 1000)
    );

    // Create orbit path
    viewer.entities.add({
      name: data.OBJECT_NAME || "Spacecraft",
      polyline: {
        positions: positions,
        width: 3,
        material: new Cesium.PolylineGlowMaterialProperty({
          glowPower: 0.3,
          color: Cesium.Color.fromCssColorString("#17ead9")
        })
      }
    });

